      2.10          N: GNSS NAV DATA                        RINEX VERSION / TYPE
fic2rin                                 01/28/2021 00:17:16 PGM / RUN BY / DATE
                                                            END OF HEADER
18 21  1 27  4  0  0.0 3.439597785473e-04 2.387423592154e-12 0.000000000000e+00
    5.400000000000e+01-7.875000000000e+01 4.694124100539e-09 2.129328367028e+00
   -4.019588232040e-06 1.181734842248e-03 1.206994056702e-06 5.153690540314e+03
    2.736000000000e+05 3.911554813385e-08-1.294904176128e+00 4.097819328308e-08
    9.664695700683e-01 3.615000000000e+02 3.041867358237e+00-8.377491813303e-09
   -1.992940156814e-10 1.000000000000e+00 2.142000000000e+03 0.000000000000e+00
    2.400000000000e+00 0.000000000000e+00-8.381903171539e-09 3.100000000000e+02
    2.664000000000e+05 4.000000000000e+00
14 21  1 27  4  0  0.0 9.104656055570e-05 4.547473508865e-12 0.000000000000e+00
    2.000000000000e+02 8.503125000000e+01 4.210175370703e-09 1.694275577447e+00
    4.360452294350e-06 3.120852634311e-04 1.118518412113e-05 5.153748895645e+03
    2.736000000000e+05-1.490116119385e-08 2.917307877171e+00-1.303851604462e-08
    9.589638699058e-01 1.637812500000e+02 2.028727727327e+00-7.733536418548e-09
   -2.846547141543e-10 1.000000000000e+00 2.142000000000e+03 0.000000000000e+00
    2.400000000000e+00 0.000000000000e+00-7.916241884232e-09 9.680000000000e+02
    2.664000000000e+05 4.000000000000e+00
11 21  1 27  4  0  0.0-4.172464832664e-05 1.057287590811e-11 0.000000000000e+00
    1.700000000000e+01 1.771875000000e+01 5.891673983299e-09 1.415945659592e+00
    6.575137376785e-07 1.537592138629e-02-8.046627044678e-07 5.153729127884e+03
    2.736000000000e+05 3.427267074585e-07-1.799268087401e+00-2.197921276093e-07
    9.138855224517e-01 3.661875000000e+02 2.083733657768e+00-8.917514307408e-09
    4.393040130612e-11 1.000000000000e+00 2.142000000000e+03 0.000000000000e+00
    2.400000000000e+00 6.300000000000e+01-1.257285475731e-08 1.700000000000e+01
    2.664000000000e+05 4.000000000000e+00
21 21  1 27  3 59 44.0 9.033968672156e-05 3.296918293927e-12 0.000000000000e+00
    6.700000000000e+01-6.093750000000e+01 4.861631077877e-09-1.864358846966e+00
   -2.520158886909e-06 2.424658078235e-02 1.402571797371e-06 5.153726026535e+03
    2.735840000000e+05-1.154839992523e-07-1.388976663859e+00 5.643814802170e-07
    9.556614800966e-01 3.488125000000e+02-1.204532654626e+00-8.317846471693e-09
   -1.621496113250e-10 1.000000000000e+00 2.142000000000e+03 0.000000000000e+00
    2.400000000000e+00 0.000000000000e+00-1.024454832077e-08 6.700000000000e+01
    2.667000000000e+05 4.000000000000e+00
13 21  1 27  3 59 44.0 9.036622941494e-05 4.206412995700e-12 0.000000000000e+00
    1.200000000000e+01 1.653125000000e+01 4.443399371133e-09-2.741564985757e+00
    9.164214134216e-07 4.916702862829e-03 7.173046469688e-06 5.153674465179e+03
    2.735840000000e+05 1.303851604462e-08 9.067332545196e-01-1.676380634308e-08
    9.678927786993e-01 2.453750000000e+02 1.034793444421e+00-7.744608308308e-09
    5.121641908372e-10 1.000000000000e+00 2.142000000000e+03 0.000000000000e+00
    2.400000000000e+00 0.000000000000e+00-1.117587089539e-08 1.200000000000e+01
    2.667900000000e+05 4.000000000000e+00
22 21  1 27  3 59 44.0-6.908918730915e-04 7.048583938740e-12 0.000000000000e+00
    4.000000000000e+00-1.155312500000e+02 4.758055334960e-09-3.105398535948e+00
   -5.992129445076e-06 6.900359643623e-03 9.685754776001e-06 5.153627693176e+03
    2.735840000000e+05 2.793967723846e-08-3.648780810138e-01 8.381903171539e-08
    9.338462365013e-01 1.747187500000e+02-1.045463904522e+00-7.961045895231e-09
   -1.500062483624e-11 1.000000000000e+00 2.142000000000e+03 0.000000000000e+00
    2.400000000000e+00 0.000000000000e+00-1.816079020500e-08 4.000000000000e+00
    2.709000000000e+05 4.000000000000e+00
22 21  1 27  5 59 44.0-6.908415816724e-04 7.048583938740e-12 0.000000000000e+00
    9.000000000000e+00-1.095312500000e+02 4.818414992039e-09-2.055162011873e+00
   -5.664303898811e-06 6.900922628120e-03 9.544193744659e-06 5.153626968384e+03
    2.807840000000e+05-7.823109626770e-08-3.649354215508e-01 1.676380634308e-07
    9.338456645003e-01 1.787187500000e+02-1.045488850201e+00-8.063550164945e-09
   -3.321566928024e-11 1.000000000000e+00 2.142000000000e+03 0.000000000000e+00
    2.400000000000e+00 0.000000000000e+00-1.816079020500e-08 9.000000000000e+00
    2.736000000000e+05 4.000000000000e+00
13 21  1 27  5 59 44.0 9.039649739861e-05 4.206412995700e-12 0.000000000000e+00
    3.600000000000e+01 1.637500000000e+01 4.489115561111e-09-1.691373790199e+00
    8.642673492432e-07 4.916626145132e-03 7.240101695061e-06 5.153674636841e+03
    2.807840000000e+05 1.490116119385e-07 9.066778757557e-01-1.490116119385e-08
    9.678960351549e-01 2.446562500000e+02 1.034781859572e+00-7.806753754058e-09
    4.210889686172e-10 1.000000000000e+00 2.142000000000e+03 0.000000000000e+00
    2.400000000000e+00 0.000000000000e+00-1.117587089539e-08 3.600000000000e+01
    2.736000000000e+05 4.000000000000e+00
 1 21  1 27  6  0  0.0 7.729609496891e-04-7.048583938740e-12 0.000000000000e+00
    2.300000000000e+01-7.771875000000e+01 4.205889477893e-09 3.057577016676e+00
   -4.133209586143e-06 1.030921516940e-02 1.620501279831e-06 5.153691642761e+03
    2.808000000000e+05-5.029141902924e-08-1.308528169816e+00-1.955777406693e-07
    9.827865823545e-01 3.594062500000e+02 8.198593507071e-01-7.987475567561e-09
   -1.882221259213e-10 1.000000000000e+00 2.142000000000e+03 0.000000000000e+00
    2.400000000000e+00 0.000000000000e+00 4.656612873077e-09 2.300000000000e+01
    2.736000000000e+05 4.000000000000e+00
 2 21  1 27  6  0  0.0-5.704239010811e-04-4.092726157978e-12 0.000000000000e+00
    6.800000000000e+01-8.128125000000e+01 4.751983653479e-09-2.982008240956e+00
   -4.000961780548e-06 2.039002708625e-02-1.210719347000e-07 5.153606609344e+03
    2.808000000000e+05 3.594905138016e-07-1.389892288193e+00 1.341104507446e-07
    9.615597551320e-01 3.795937500000e+02-1.554954306454e+00-8.215342201978e-09
   -1.339341503235e-10 1.000000000000e+00 2.142000000000e+03 0.000000000000e+00
    2.400000000000e+00 0.000000000000e+00-1.769512891769e-08 6.800000000000e+01
    2.736000000000e+05 4.000000000000e+00
 9 21  1 27  6  0  0.0-3.169579431415e-04-3.865352482535e-12 0.000000000000e+00
    2.700000000000e+01 1.887500000000e+01 4.814129099229e-09-5.944421615878e-01
    8.903443813324e-07 1.991795375943e-03 7.955357432365e-06 5.153572134018e+03
    2.808000000000e+05-4.656612873077e-08 7.599369622191e-01 4.842877388000e-08
    9.531246455587e-01 2.223437500000e+02 1.800559557333e+00-8.043906489564e-09
    5.185930300527e-10 1.000000000000e+00 2.142000000000e+03 0.000000000000e+00
    2.400000000000e+00 0.000000000000e+00 1.396983861923e-09 2.700000000000e+01
    2.736000000000e+05 4.000000000000e+00
 6 21  1 27  6  0  0.0-4.167202860117e-06 5.684341886081e-13 0.000000000000e+00
    1.800000000000e+01-8.781250000000e+01 4.340180785951e-09-2.859638236234e+00
   -4.395842552185e-06 2.280339132994e-03 1.391395926476e-06 5.153699211121e+03
    2.808000000000e+05-4.470348358154e-08-1.316786367243e+00 1.005828380585e-07
    9.822754168339e-01 3.644062500000e+02-1.102209455219e+00-8.202841681281e-09
   -1.760787629587e-10 1.000000000000e+00 2.142000000000e+03 0.000000000000e+00
    2.400000000000e+00 0.000000000000e+00 3.725290298462e-09 1.800000000000e+01
    2.736000000000e+05 4.000000000000e+00
 5 21  1 27  6  0  0.0-3.206869587302e-05-1.023181539495e-12 0.000000000000e+00
    5.600000000000e+01-1.215625000000e+02 4.389468553270e-09-4.073550324293e-01
   -6.284564733505e-06 6.008262163959e-03 1.047924160957e-05 5.153813831329e+03
    2.808000000000e+05-4.470348358154e-08-3.049918456203e-01 8.381903171539e-08
    9.554341631079e-01 1.722812500000e+02 8.860362230794e-01-7.976403677801e-09
    2.857261873569e-12 1.000000000000e+00 2.142000000000e+03 0.000000000000e+00
    2.400000000000e+00 0.000000000000e+00-1.117587089539e-08 5.600000000000e+01
    2.736000000000e+05 4.000000000000e+00
 3 21  1 27  6  0  0.0-6.694206967950e-05-9.890754881781e-12 0.000000000000e+00
    6.000000000000e+01-1.018125000000e+02 4.031239345871e-09 1.900061779623e+00
   -5.371868610382e-06 3.266513114795e-03 1.042149960995e-05 5.153672622681e+03
    2.808000000000e+05-7.450580596924e-08-2.697713262929e-01-7.450580596924e-08
    9.685137420735e-01 1.819687500000e+02 8.629076023538e-01-7.676034023342e-09
    4.285892810353e-11 1.000000000000e+00 2.142000000000e+03 0.000000000000e+00
    2.400000000000e+00 0.000000000000e+00 1.862645149231e-09 6.000000000000e+01
    2.736000000000e+05 4.000000000000e+00
 8 21  1 27  6  0  0.0-8.089002221823e-06-1.364242052659e-12 0.000000000000e+00
    5.600000000000e+01 1.126562500000e+02 4.353395622116e-09-1.006044797141e+00
    5.722045898438e-06 6.143801729195e-03 4.129484295845e-06 5.153786945343e+03
    2.808000000000e+05 1.117587089539e-08-2.381932478397e+00-8.940696716309e-08
    9.683899879815e-01 3.008437500000e+02-3.455025707689e-02-8.146053601544e-09
    3.593006806013e-10 1.000000000000e+00 2.142000000000e+03 0.000000000000e+00
    2.400000000000e+00 0.000000000000e+00 5.122274160385e-09 5.600000000000e+01
    2.736000000000e+05 4.000000000000e+00
 7 21  1 27  6  0  0.0 3.680121153593e-05 1.398348103976e-11 0.000000000000e+00
    4.000000000000e+01-1.575000000000e+01 4.904847163715e-09 2.421623148724e+00
   -9.778887033463e-07 1.437425473705e-02 6.062909960747e-06 5.153601205826e+03
    2.808000000000e+05-9.126961231232e-08 1.833289420594e+00-2.402812242508e-07
    9.516050394038e-01 2.580937500000e+02-2.354690241752e+00-7.962831683902e-09
   -3.453715289676e-10 1.000000000000e+00 2.142000000000e+03 0.000000000000e+00
    3.400000000000e+00 0.000000000000e+00-1.117587089539e-08 4.000000000000e+01
    2.736000000000e+05 4.000000000000e+00
